{
"type": "FeatureCollection",
"name": "Farmlands_in_the_poorer_regions",
"crs": { "type": "name", "properties": { "name": "urn:ogc:def:crs:OGC:1.3:CRS84" } },
"features": [
{ "type": "Feature", "properties": { "score": 0.30228153 }, "geometry": { "type": "Point", "coordinates": [ -123.587128973276592, 40.899015899286198 ] } },
{ "type": "Feature", "properties": { "score": 0.30212483 }, "geometry": { "type": "Point", "coordinates": [ -123.285080759968224, 38.951494543694459 ] } },
{ "type": "Feature", "properties": { "score": 0.29938248 }, "geometry": { "type": "Point", "coordinates": [ -122.911281660418425, 38.194468237281228 ] } },
{ "type": "Feature", "properties": { "score": 0.29743704 }, "geometry": { "type": "Point", "coordinates": [ -122.970553679833856, 39.198446093594526 ] } },
{ "type": "Feature", "properties": { "score": 0.29529884 }, "geometry": { "type": "Point", "coordinates": [ -123.308615194592278, 38.914735922415609 ] } },
{ "type": "Feature", "properties": { "score": 0.29393917 }, "geometry": { "type": "Point", "coordinates": [ -122.824372249861582, 41.358983498392568 ] } },
{ "type": "Feature", "properties": { "score": 0.29373923 }, "geometry": { "type": "Point", "coordinates": [ -124.06814866090285, 40.541960942934494 ] } },
{ "type": "Feature", "properties": { "score": 0.29316434 }, "geometry": { "type": "Point", "coordinates": [ -122.810642993055595, 41.371948739674664 ] } },
{ "type": "Feature", "properties": { "score": 0.29301184 }, "geometry": { "type": "Point", "coordinates": [ -123.284990263161291, 38.949695092965804 ] } },
{ "type": "Feature", "properties": { "score": 0.29245082 }, "geometry": { "type": "Point", "coordinates": [ -122.817023947674485, 41.406009352678353 ] } },
{ "type": "Feature", "properties": { "score": 0.29223013 }, "geometry": { "type": "Point", "coordinates": [ -124.065676690272312, 40.540248855953195 ] } },
{ "type": "Feature", "properties": { "score": 0.291024 }, "geometry": { "type": "Point", "coordinates": [ -123.278303326304908, 38.908446840279005 ] } },
{ "type": "Feature", "properties": { "score": 0.29082632 }, "geometry": { "type": "Point", "coordinates": [ -122.907353039376716, 38.208993476689486 ] } },
{ "type": "Feature", "properties": { "score": 0.29056567 }, "geometry": { "type": "Point", "coordinates": [ -123.273695881509653, 38.908585969983172 ] } },
{ "type": "Feature", "properties": { "score": 0.29003507 }, "geometry": { "type": "Point", "coordinates": [ -122.824019152387706, 41.402225290795712 ] } },
{ "type": "Feature", "properties": { "score": 0.28950313 }, "geometry": { "type": "Point", "coordinates": [ -123.584759300740131, 40.899092540462313 ] } },
{ "type": "Feature", "properties": { "score": 0.2894589 }, "geometry": { "type": "Point", "coordinates": [ -122.818499986400397, 41.33571807217163 ] } },
{ "type": "Feature", "properties": { "score": 0.28940547 }, "geometry": { "type": "Point", "coordinates": [ -122.95361522117993, 39.182694077553165 ] } },
{ "type": "Feature", "properties": { "score": 0.28857154 }, "geometry": { "type": "Point", "coordinates": [ -122.741833745015896, 41.386308981547458 ] } },
{ "type": "Feature", "properties": { "score": 0.28847077 }, "geometry": { "type": "Point", "coordinates": [ -122.968074029450008, 39.194910443933161 ] } },
{ "type": "Feature", "properties": { "score": 0.28845179 }, "geometry": { "type": "Point", "coordinates": [ -122.746278317678389, 41.378991201212038 ] } },
{ "type": "Feature", "properties": { "score": 0.28831315 }, "geometry": { "type": "Point", "coordinates": [ -122.94634642070244, 39.175685325980474 ] } },
{ "type": "Feature", "properties": { "score": 0.28827462 }, "geometry": { "type": "Point", "coordinates": [ -123.301612690612345, 38.913146867393536 ] } },
{ "type": "Feature", "properties": { "score": 0.28824505 }, "geometry": { "type": "Point", "coordinates": [ -122.83527899921998, 41.387521642235278 ] } },
{ "type": "Feature", "properties": { "score": 0.288 }, "geometry": { "type": "Point", "coordinates": [ -122.908365346457117, 38.180129506073818 ] } },
{ "type": "Feature", "properties": { "score": 0.28796104 }, "geometry": { "type": "Point", "coordinates": [ -123.268494971323861, 38.899723014254818 ] } },
{ "type": "Feature", "properties": { "score": 0.28757501 }, "geometry": { "type": "Point", "coordinates": [ -122.908603309923492, 38.185529857219379 ] } },
{ "type": "Feature", "properties": { "score": 0.28724715 }, "geometry": { "type": "Point", "coordinates": [ -122.902471963118458, 38.201917216562883 ] } },
{ "type": "Feature", "properties": { "score": 0.28718495 }, "geometry": { "type": "Point", "coordinates": [ -122.905070962395584, 38.209055600030865 ] } },
{ "type": "Feature", "properties": { "score": 0.28705212 }, "geometry": { "type": "Point", "coordinates": [ -122.80825590927968, 41.372010425502985 ] } },
{ "type": "Feature", "properties": { "score": 0.28702003 }, "geometry": { "type": "Point", "coordinates": [ -123.306220372209893, 38.913006658204111 ] } },
{ "type": "Feature", "properties": { "score": 0.28695473 }, "geometry": { "type": "Point", "coordinates": [ -122.902788881566266, 38.209117679692739 ] } },
{ "type": "Feature", "properties": { "score": 0.28691876 }, "geometry": { "type": "Point", "coordinates": [ -123.299308843103503, 38.913216905519782 ] } },
{ "type": "Feature", "properties": { "score": 0.28686801 }, "geometry": { "type": "Point", "coordinates": [ -122.830333882957589, 41.384047645677541 ] } },
{ "type": "Feature", "properties": { "score": 0.28659472 }, "geometry": { "type": "Point", "coordinates": [ -122.827267636223738, 41.369716470490296 ] } },
{ "type": "Feature", "properties": { "score": 0.28644371 }, "geometry": { "type": "Point", "coordinates": [ -122.754253475778029, 41.344563531142192 ] } },
{ "type": "Feature", "properties": { "score": 0.28642201 }, "geometry": { "type": "Point", "coordinates": [ -123.308524206293001, 38.912936487141295 ] } },
{ "type": "Feature", "properties": { "score": 0.28583694 }, "geometry": { "type": "Point", "coordinates": [ -122.826928422569907, 41.362519827892868 ] } },
{ "type": "Feature", "properties": { "score": 0.28575534 }, "geometry": { "type": "Point", "coordinates": [ -122.972200861727686, 39.183984478487361 ] } },
{ "type": "Feature", "properties": { "score": 0.28535637 }, "geometry": { "type": "Point", "coordinates": [ -122.835534257773574, 41.392919074264533 ] } },
{ "type": "Feature", "properties": { "score": 0.28510073 }, "geometry": { "type": "Point", "coordinates": [ -122.816939318654846, 41.404210194338894 ] } },
{ "type": "Feature", "properties": { "score": 0.28505418 }, "geometry": { "type": "Point", "coordinates": [ -123.292940901122748, 38.924223467687277 ] } },
{ "type": "Feature", "properties": { "score": 0.28487179 }, "geometry": { "type": "Point", "coordinates": [ -124.090517942684073, 40.559165179621552 ] } },
{ "type": "Feature", "properties": { "score": 0.28485522 }, "geometry": { "type": "Point", "coordinates": [ -122.82069919854932, 41.382496512511921 ] } },
{ "type": "Feature", "properties": { "score": 0.2848531 }, "geometry": { "type": "Point", "coordinates": [ -123.89023166919074, 40.34285323319132 ] } },
{ "type": "Feature", "properties": { "score": 0.28480902 }, "geometry": { "type": "Point", "coordinates": [ -122.918444889538847, 38.201481807552391 ] } },
{ "type": "Feature", "properties": { "score": 0.28478605 }, "geometry": { "type": "Point", "coordinates": [ -123.930496777379545, 40.422531384365023 ] } },
{ "type": "Feature", "properties": { "score": 0.2847088 }, "geometry": { "type": "Point", "coordinates": [ -124.064317808892596, 40.558307841594377 ] } },
{ "type": "Feature", "properties": { "score": 0.28468725 }, "geometry": { "type": "Point", "coordinates": [ -123.941076035918144, 40.400543569516145 ] } },
{ "type": "Feature", "properties": { "score": 0.28456286 }, "geometry": { "type": "Point", "coordinates": [ -124.078384419168898, 40.554202385383 ] } },
{ "type": "Feature", "properties": { "score": 0.28455362 }, "geometry": { "type": "Point", "coordinates": [ -122.972866988166686, 39.198382250025929 ] } },
{ "type": "Feature", "properties": { "score": 0.28444514 }, "geometry": { "type": "Point", "coordinates": [ -122.970470449615974, 39.196646372070127 ] } },
{ "type": "Feature", "properties": { "score": 0.28431571 }, "geometry": { "type": "Point", "coordinates": [ -122.748665705860176, 41.378930727274785 ] } },
{ "type": "Feature", "properties": { "score": 0.28413793 }, "geometry": { "type": "Point", "coordinates": [ -122.91340434943568, 38.190805784368742 ] } },
{ "type": "Feature", "properties": { "score": 0.28403544 }, "geometry": { "type": "Point", "coordinates": [ -123.887991335763374, 40.344733675341722 ] } },
{ "type": "Feature", "properties": { "score": 0.28367966 }, "geometry": { "type": "Point", "coordinates": [ -122.754916077899395, 41.358957452983702 ] } },
{ "type": "Feature", "properties": { "score": 0.28366545 }, "geometry": { "type": "Point", "coordinates": [ -122.813475320217023, 41.330444115902267 ] } },
{ "type": "Feature", "properties": { "score": 0.2836284 }, "geometry": { "type": "Point", "coordinates": [ -122.913483812011407, 38.192605893385988 ] } },
{ "type": "Feature", "properties": { "score": 0.28360114 }, "geometry": { "type": "Point", "coordinates": [ -122.891852875532422, 38.171558684150767 ] } },
{ "type": "Feature", "properties": { "score": 0.28358883 }, "geometry": { "type": "Point", "coordinates": [ -122.895468276339543, 38.198502915711067 ] } },
{ "type": "Feature", "properties": { "score": 0.28358036 }, "geometry": { "type": "Point", "coordinates": [ -122.823934345107034, 41.400426138500372 ] } },
{ "type": "Feature", "properties": { "score": 0.28347698 }, "geometry": { "type": "Point", "coordinates": [ -122.902234337547227, 38.196516862234461 ] } },
{ "type": "Feature", "properties": { "score": 0.2831035 }, "geometry": { "type": "Point", "coordinates": [ -122.975096946055359, 39.196518645241163 ] } },
{ "type": "Feature", "properties": { "score": 0.28298128 }, "geometry": { "type": "Point", "coordinates": [ -123.275999606127286, 38.908516427285832 ] } },
{ "type": "Feature", "properties": { "score": 0.28297535 }, "geometry": { "type": "Point", "coordinates": [ -124.07947040605913, 40.534339687633157 ] } },
{ "type": "Feature", "properties": { "score": 0.2828483 }, "geometry": { "type": "Point", "coordinates": [ -123.303916533648732, 38.913076784954924 ] } },
{ "type": "Feature", "properties": { "score": 0.28269359 }, "geometry": { "type": "Point", "coordinates": [ -122.821546261418419, 41.400488097667356 ] } },
{ "type": "Feature", "properties": { "score": 0.28246817 }, "geometry": { "type": "Point", "coordinates": [ -122.904991668076462, 38.207255487594125 ] } },
{ "type": "Feature", "properties": { "score": 0.2824564 }, "geometry": { "type": "Point", "coordinates": [ -124.090749734492945, 40.562760889311264 ] } },
{ "type": "Feature", "properties": { "score": 0.28233919 }, "geometry": { "type": "Point", "coordinates": [ -124.065523012580243, 40.540243105959448 ] } },
{ "type": "Feature", "properties": { "score": 0.28221351 }, "geometry": { "type": "Point", "coordinates": [ -122.911440504510864, 38.198068456695907 ] } },
{ "type": "Feature", "properties": { "score": 0.28217387 }, "geometry": { "type": "Point", "coordinates": [ -122.82589816974054, 41.391368373194119 ] } },
{ "type": "Feature", "properties": { "score": 0.28202498 }, "geometry": { "type": "Point", "coordinates": [ -122.902709642914715, 38.207317564907619 ] } },
{ "type": "Feature", "properties": { "score": 0.28199035 }, "geometry": { "type": "Point", "coordinates": [ -124.082983127604365, 40.552232343933397 ] } },
{ "type": "Feature", "properties": { "score": 0.28181389 }, "geometry": { "type": "Point", "coordinates": [ -124.087350034340773, 40.546666404363464 ] } },
{ "type": "Feature", "properties": { "score": 0.28165108 }, "geometry": { "type": "Point", "coordinates": [ -122.827013215864568, 41.364318989565135 ] } },
{ "type": "Feature", "properties": { "score": 0.2815854 }, "geometry": { "type": "Point", "coordinates": [ -123.579916390734653, 40.897447245178085 ] } },
{ "type": "Feature", "properties": { "score": 0.28150457 }, "geometry": { "type": "Point", "coordinates": [ -123.206535884312117, 41.571870868574514 ] } },
{ "type": "Feature", "properties": { "score": 0.2814714 }, "geometry": { "type": "Point", "coordinates": [ -122.906797716191519, 38.196392692113498 ] } },
{ "type": "Feature", "properties": { "score": 0.28133929 }, "geometry": { "type": "Point", "coordinates": [ -122.820191284269896, 41.371701528701735 ] } },
{ "type": "Feature", "properties": { "score": 0.28127062 }, "geometry": { "type": "Point", "coordinates": [ -124.080626002252316, 40.552318449936102 ] } },
{ "type": "Feature", "properties": { "score": 0.28125745 }, "geometry": { "type": "Point", "coordinates": [ -123.58238962287362, 40.8991691354029 ] } },
{ "type": "Feature", "properties": { "score": 0.28114083 }, "geometry": { "type": "Point", "coordinates": [ -123.301703507002756, 38.914946310714313 ] } },
{ "type": "Feature", "properties": { "score": 0.28110912 }, "geometry": { "type": "Point", "coordinates": [ -122.903802976675507, 38.180253721246046 ] } },
{ "type": "Feature", "properties": { "score": 0.28108966 }, "geometry": { "type": "Point", "coordinates": [ -123.342528664687038, 38.991193461008997 ] } },
{ "type": "Feature", "properties": { "score": 0.28102684 }, "geometry": { "type": "Point", "coordinates": [ -122.816685472008629, 41.398812715231976 ] } },
{ "type": "Feature", "properties": { "score": 0.28101784 }, "geometry": { "type": "Point", "coordinates": [ -124.078499976406221, 40.556000259894894 ] } },
{ "type": "Feature", "properties": { "score": 0.28092217 }, "geometry": { "type": "Point", "coordinates": [ -122.817193225924456, 41.409607667312883 ] } },
{ "type": "Feature", "properties": { "score": 0.2807461 }, "geometry": { "type": "Point", "coordinates": [ -122.897512779149181, 38.193040608760867 ] } },
{ "type": "Feature", "properties": { "score": 0.2806744 }, "geometry": { "type": "Point", "coordinates": [ -123.932849659507141, 40.422448281104231 ] } },
{ "type": "Feature", "properties": { "score": 0.28065678 }, "geometry": { "type": "Point", "coordinates": [ -124.080741611777583, 40.554116321852462 ] } },
{ "type": "Feature", "properties": { "score": 0.28063941 }, "geometry": { "type": "Point", "coordinates": [ -122.741751181014095, 41.38450973936331 ] } },
{ "type": "Feature", "properties": { "score": 0.28058773 }, "geometry": { "type": "Point", "coordinates": [ -122.824456965875001, 41.36078266389918 ] } },
{ "type": "Feature", "properties": { "score": 0.28056535 }, "geometry": { "type": "Point", "coordinates": [ -122.974680310815373, 39.187520051996309 ] } },
{ "type": "Feature", "properties": { "score": 0.28042492 }, "geometry": { "type": "Point", "coordinates": [ -122.810727373276791, 41.373747915200418 ] } },
{ "type": "Feature", "properties": { "score": 0.28035295 }, "geometry": { "type": "Point", "coordinates": [ -122.885088793994512, 38.173544125675072 ] } },
{ "type": "Feature", "properties": { "score": 0.28025174 }, "geometry": { "type": "Point", "coordinates": [ -122.90239274857052, 38.200117099118231 ] } },
{ "type": "Feature", "properties": { "score": 0.28023121 }, "geometry": { "type": "Point", "coordinates": [ -122.81841549210101, 41.333918892192109 ] } },
{ "type": "Feature", "properties": { "score": 0.28022334 }, "geometry": { "type": "Point", "coordinates": [ -122.821631004788884, 41.402287252433545 ] } },
{ "type": "Feature", "properties": { "score": 0.28018951 }, "geometry": { "type": "Point", "coordinates": [ -122.815945341278777, 41.332181530211351 ] } }
]
}
