{
"type": "FeatureCollection",
"name": "Find_all_the_lakes_in_the_Shasta_Trinity_National_",
"crs": { "type": "name", "properties": { "name": "urn:ogc:def:crs:OGC:1.3:CRS84" } },
"features": [
{ "type": "Feature", "properties": { "score": 0.28759021 }, "geometry": { "type": "Point", "coordinates": [ -122.782127999872557, 41.224960959019221 ] } },
{ "type": "Feature", "properties": { "score": 0.28313118 }, "geometry": { "type": "Point", "coordinates": [ -122.772016118487571, 40.850518723175789 ] } },
{ "type": "Feature", "properties": { "score": 0.28045326 }, "geometry": { "type": "Point", "coordinates": [ -122.89734442347671, 40.939127549062853 ] } },
{ "type": "Feature", "properties": { "score": 0.2796323 }, "geometry": { "type": "Point", "coordinates": [ -122.771851972064752, 40.846919947378474 ] } },
{ "type": "Feature", "properties": { "score": 0.27834225 }, "geometry": { "type": "Point", "coordinates": [ -122.531079837887106, 39.971887126899503 ] } },
{ "type": "Feature", "properties": { "score": 0.27817222 }, "geometry": { "type": "Point", "coordinates": [ -122.46807533244143, 40.155327086069541 ] } },
{ "type": "Feature", "properties": { "score": 0.27815905 }, "geometry": { "type": "Point", "coordinates": [ -122.638524357532432, 40.403479198723176 ] } },
{ "type": "Feature", "properties": { "score": 0.27808109 }, "geometry": { "type": "Point", "coordinates": [ -122.5392915994736, 40.000518506352002 ] } },
{ "type": "Feature", "properties": { "score": 0.27776447 }, "geometry": { "type": "Point", "coordinates": [ -122.598207396835889, 40.397258483973701 ] } },
{ "type": "Feature", "properties": { "score": 0.27700788 }, "geometry": { "type": "Point", "coordinates": [ -123.038031390178347, 40.944321579446111 ] } },
{ "type": "Feature", "properties": { "score": 0.27700597 }, "geometry": { "type": "Point", "coordinates": [ -122.786137693690364, 40.844759601072063 ] } },
{ "type": "Feature", "properties": { "score": 0.27684438 }, "geometry": { "type": "Point", "coordinates": [ -122.425732398232256, 40.739992107686717 ] } },
{ "type": "Feature", "properties": { "score": 0.2767373 }, "geometry": { "type": "Point", "coordinates": [ -122.492367298200236, 41.31669115695081 ] } },
{ "type": "Feature", "properties": { "score": 0.27615184 }, "geometry": { "type": "Point", "coordinates": [ -122.712155836291629, 41.206920223515297 ] } },
{ "type": "Feature", "properties": { "score": 0.275989 }, "geometry": { "type": "Point", "coordinates": [ -122.434523933322723, 40.138086321868769 ] } },
{ "type": "Feature", "properties": { "score": 0.27598712 }, "geometry": { "type": "Point", "coordinates": [ -122.649815111659237, 40.442843565895309 ] } },
{ "type": "Feature", "properties": { "score": 0.27592799 }, "geometry": { "type": "Point", "coordinates": [ -122.471638610503405, 41.789086469561852 ] } },
{ "type": "Feature", "properties": { "score": 0.27577797 }, "geometry": { "type": "Point", "coordinates": [ -122.472733647331381, 40.443469134097128 ] } },
{ "type": "Feature", "properties": { "score": 0.2752974 }, "geometry": { "type": "Point", "coordinates": [ -122.567048752317277, 41.716609724207153 ] } },
{ "type": "Feature", "properties": { "score": 0.27522501 }, "geometry": { "type": "Point", "coordinates": [ -122.480176428379565, 39.81633438813185 ] } },
{ "type": "Feature", "properties": { "score": 0.27505195 }, "geometry": { "type": "Point", "coordinates": [ -123.015436782016366, 41.018802680352273 ] } },
{ "type": "Feature", "properties": { "score": 0.27453056 }, "geometry": { "type": "Point", "coordinates": [ -122.641964907645814, 40.428616487150343 ] } },
{ "type": "Feature", "properties": { "score": 0.27442569 }, "geometry": { "type": "Point", "coordinates": [ -122.794868110381032, 40.828320940228387 ] } },
{ "type": "Feature", "properties": { "score": 0.27371839 }, "geometry": { "type": "Point", "coordinates": [ -122.451456643370818, 40.73219731268594 ] } },
{ "type": "Feature", "properties": { "score": 0.27346966 }, "geometry": { "type": "Point", "coordinates": [ -122.433592724827008, 40.114686989921296 ] } },
{ "type": "Feature", "properties": { "score": 0.27346078 }, "geometry": { "type": "Point", "coordinates": [ -122.762907155398736, 41.221849599810838 ] } },
{ "type": "Feature", "properties": { "score": 0.27339679 }, "geometry": { "type": "Point", "coordinates": [ -122.570086177031115, 40.008788212235601 ] } },
{ "type": "Feature", "properties": { "score": 0.27319562 }, "geometry": { "type": "Point", "coordinates": [ -122.449164965148654, 40.734051441453232 ] } },
{ "type": "Feature", "properties": { "score": 0.27316537 }, "geometry": { "type": "Point", "coordinates": [ -122.765288964345999, 41.221788869250126 ] } },
{ "type": "Feature", "properties": { "score": 0.27314642 }, "geometry": { "type": "Point", "coordinates": [ -122.482333754742115, 39.927988464377684 ] } },
{ "type": "Feature", "properties": { "score": 0.27301025 }, "geometry": { "type": "Point", "coordinates": [ -122.77974609418763, 41.225022020725824 ] } },
{ "type": "Feature", "properties": { "score": 0.27277568 }, "geometry": { "type": "Point", "coordinates": [ -122.485437707183621, 41.322255829541753 ] } },
{ "type": "Feature", "properties": { "score": 0.27245903 }, "geometry": { "type": "Point", "coordinates": [ -122.775563872013166, 41.237738814913911 ] } },
{ "type": "Feature", "properties": { "score": 0.27241832 }, "geometry": { "type": "Point", "coordinates": [ -122.422672676129537, 40.781494182669505 ] } },
{ "type": "Feature", "properties": { "score": 0.27221233 }, "geometry": { "type": "Point", "coordinates": [ -122.432609549305212, 40.734430900389363 ] } },
{ "type": "Feature", "properties": { "score": 0.27197775 }, "geometry": { "type": "Point", "coordinates": [ -122.56157283499806, 41.370902983773313 ] } },
{ "type": "Feature", "properties": { "score": 0.27195621 }, "geometry": { "type": "Point", "coordinates": [ -122.57715035726342, 40.622959926892563 ] } },
{ "type": "Feature", "properties": { "score": 0.27180633 }, "geometry": { "type": "Point", "coordinates": [ -123.008579720844253, 41.024396377201974 ] } },
{ "type": "Feature", "properties": { "score": 0.27158388 }, "geometry": { "type": "Point", "coordinates": [ -122.490663072850012, 41.332942144921446 ] } },
{ "type": "Feature", "properties": { "score": 0.27141017 }, "geometry": { "type": "Point", "coordinates": [ -122.972962536947136, 40.830805110548518 ] } },
{ "type": "Feature", "properties": { "score": 0.27134797 }, "geometry": { "type": "Point", "coordinates": [ -122.444581242081426, 40.737759571493726 ] } },
{ "type": "Feature", "properties": { "score": 0.27104005 }, "geometry": { "type": "Point", "coordinates": [ -122.48238375861618, 41.533072143743048 ] } },
{ "type": "Feature", "properties": { "score": 0.27103159 }, "geometry": { "type": "Point", "coordinates": [ -122.850241547744034, 41.048462882598905 ] } },
{ "type": "Feature", "properties": { "score": 0.27083683 }, "geometry": { "type": "Point", "coordinates": [ -122.679961203539648, 41.02037802533323 ] } },
{ "type": "Feature", "properties": { "score": 0.27080053 }, "geometry": { "type": "Point", "coordinates": [ -122.449760888677602, 40.69080302343832 ] } },
{ "type": "Feature", "properties": { "score": 0.27068791 }, "geometry": { "type": "Point", "coordinates": [ -122.774549220751837, 40.854056746950981 ] } },
{ "type": "Feature", "properties": { "score": 0.27055645 }, "geometry": { "type": "Point", "coordinates": [ -122.559496932628477, 39.866709202834294 ] } },
{ "type": "Feature", "properties": { "score": 0.27052715 }, "geometry": { "type": "Point", "coordinates": [ -123.035362329153273, 41.701001921405933 ] } },
{ "type": "Feature", "properties": { "score": 0.2704424 }, "geometry": { "type": "Point", "coordinates": [ -122.695169875197848, 40.935331552724257 ] } },
{ "type": "Feature", "properties": { "score": 0.27036288 }, "geometry": { "type": "Point", "coordinates": [ -122.944926482881229, 41.280141803075452 ] } },
{ "type": "Feature", "properties": { "score": 0.27032056 }, "geometry": { "type": "Point", "coordinates": [ -122.771135512603792, 40.882968537491841 ] } },
{ "type": "Feature", "properties": { "score": 0.27030063 }, "geometry": { "type": "Point", "coordinates": [ -123.204820809077262, 41.40438255095664 ] } },
{ "type": "Feature", "properties": { "score": 0.27025029 }, "geometry": { "type": "Point", "coordinates": [ -123.046398081012867, 41.493536069059637 ] } },
{ "type": "Feature", "properties": { "score": 0.27023715 }, "geometry": { "type": "Point", "coordinates": [ -123.284748268418753, 41.555160838189906 ] } },
{ "type": "Feature", "properties": { "score": 0.27019218 }, "geometry": { "type": "Point", "coordinates": [ -122.567929901325144, 39.900738870235877 ] } },
{ "type": "Feature", "properties": { "score": 0.27014926 }, "geometry": { "type": "Point", "coordinates": [ -122.763994282977151, 41.245240330402019 ] } },
{ "type": "Feature", "properties": { "score": 0.27013919 }, "geometry": { "type": "Point", "coordinates": [ -122.577609024000381, 40.633757840337744 ] } },
{ "type": "Feature", "properties": { "score": 0.26996559 }, "geometry": { "type": "Point", "coordinates": [ -122.675716769005618, 40.925007382429584 ] } },
{ "type": "Feature", "properties": { "score": 0.26993281 }, "geometry": { "type": "Point", "coordinates": [ -122.46852404784596, 39.933715753698607 ] } },
{ "type": "Feature", "properties": { "score": 0.26989853 }, "geometry": { "type": "Point", "coordinates": [ -122.793326087894769, 40.846375776252458 ] } },
{ "type": "Feature", "properties": { "score": 0.26980698 }, "geometry": { "type": "Point", "coordinates": [ -122.571414346458312, 40.208738925954606 ] } },
{ "type": "Feature", "properties": { "score": 0.26976299 }, "geometry": { "type": "Point", "coordinates": [ -123.013870206427882, 41.465612424535081 ] } },
{ "type": "Feature", "properties": { "score": 0.26969334 }, "geometry": { "type": "Point", "coordinates": [ -122.482742028971131, 40.111746786254166 ] } },
{ "type": "Feature", "properties": { "score": 0.26956075 }, "geometry": { "type": "Point", "coordinates": [ -122.507238682618208, 41.273113873684466 ] } },
{ "type": "Feature", "properties": { "score": 0.2694951 }, "geometry": { "type": "Point", "coordinates": [ -122.423585074699389, 40.745445274099779 ] } },
{ "type": "Feature", "properties": { "score": 0.26944742 }, "geometry": { "type": "Point", "coordinates": [ -122.657159557027981, 40.99211183672665 ] } },
{ "type": "Feature", "properties": { "score": 0.26943517 }, "geometry": { "type": "Point", "coordinates": [ -123.046144613780243, 41.390870464476393 ] } },
{ "type": "Feature", "properties": { "score": 0.26941726 }, "geometry": { "type": "Point", "coordinates": [ -122.797980614526423, 40.844454050087755 ] } },
{ "type": "Feature", "properties": { "score": 0.26940361 }, "geometry": { "type": "Point", "coordinates": [ -122.869981581594232, 40.912831153506765 ] } },
{ "type": "Feature", "properties": { "score": 0.2693184 }, "geometry": { "type": "Point", "coordinates": [ -122.468402836067156, 41.542400620625592 ] } },
{ "type": "Feature", "properties": { "score": 0.26873645 }, "geometry": { "type": "Point", "coordinates": [ -122.977620984698248, 41.02344385329657 ] } },
{ "type": "Feature", "properties": { "score": 0.26862848 }, "geometry": { "type": "Point", "coordinates": [ -122.432682424342701, 40.73623065266451 ] } },
{ "type": "Feature", "properties": { "score": 0.26851332 }, "geometry": { "type": "Point", "coordinates": [ -122.771934042037017, 40.848719335614483 ] } },
{ "type": "Feature", "properties": { "score": 0.26834065 }, "geometry": { "type": "Point", "coordinates": [ -122.502926475665006, 41.284022286625373 ] } },
{ "type": "Feature", "properties": { "score": 0.26826635 }, "geometry": { "type": "Point", "coordinates": [ -122.32398516456513, 39.828888682614981 ] } },
{ "type": "Feature", "properties": { "score": 0.26821923 }, "geometry": { "type": "Point", "coordinates": [ -122.756257075439223, 41.232827189892085 ] } },
{ "type": "Feature", "properties": { "score": 0.26819247 }, "geometry": { "type": "Point", "coordinates": [ -122.508608767410777, 41.698172970574063 ] } },
{ "type": "Feature", "properties": { "score": 0.26818469 }, "geometry": { "type": "Point", "coordinates": [ -122.428825604687574, 40.757935686196404 ] } },
{ "type": "Feature", "properties": { "score": 0.26814649 }, "geometry": { "type": "Point", "coordinates": [ -122.525401814823752, 41.69778037475983 ] } },
{ "type": "Feature", "properties": { "score": 0.26810655 }, "geometry": { "type": "Point", "coordinates": [ -122.710965984223989, 40.91692137900791 ] } },
{ "type": "Feature", "properties": { "score": 0.26808599 }, "geometry": { "type": "Point", "coordinates": [ -122.483879897846379, 41.794207811362888 ] } },
{ "type": "Feature", "properties": { "score": 0.26805586 }, "geometry": { "type": "Point", "coordinates": [ -122.488277094902131, 41.332997542160847 ] } },
{ "type": "Feature", "properties": { "score": 0.26798353 }, "geometry": { "type": "Point", "coordinates": [ -122.495359179236857, 41.33103171017347 ] } },
{ "type": "Feature", "properties": { "score": 0.26795974 }, "geometry": { "type": "Point", "coordinates": [ -122.727736330151274, 40.86785894951403 ] } },
{ "type": "Feature", "properties": { "score": 0.26791644 }, "geometry": { "type": "Point", "coordinates": [ -122.42628848131514, 40.16710051617919 ] } },
{ "type": "Feature", "properties": { "score": 0.26776046 }, "geometry": { "type": "Point", "coordinates": [ -122.577914922152345, 40.640956436100218 ] } },
{ "type": "Feature", "properties": { "score": 0.26765609 }, "geometry": { "type": "Point", "coordinates": [ -122.509217340020044, 41.319900863270981 ] } },
{ "type": "Feature", "properties": { "score": 0.2676512 }, "geometry": { "type": "Point", "coordinates": [ -122.504370285267754, 41.318212831989797 ] } },
{ "type": "Feature", "properties": { "score": 0.26764646 }, "geometry": { "type": "Point", "coordinates": [ -122.812690845107369, 40.854881939558346 ] } },
{ "type": "Feature", "properties": { "score": 0.26743078 }, "geometry": { "type": "Point", "coordinates": [ -122.723239934057347, 40.873376875872303 ] } },
{ "type": "Feature", "properties": { "score": 0.26737151 }, "geometry": { "type": "Point", "coordinates": [ -122.504294240911364, 41.316413335533518 ] } },
{ "type": "Feature", "properties": { "score": 0.26732311 }, "geometry": { "type": "Point", "coordinates": [ -122.642837457406671, 40.990662763350045 ] } },
{ "type": "Feature", "properties": { "score": 0.26731539 }, "geometry": { "type": "Point", "coordinates": [ -123.015402449517552, 41.49619408005708 ] } },
{ "type": "Feature", "properties": { "score": 0.26728082 }, "geometry": { "type": "Point", "coordinates": [ -122.887566283451221, 41.03306588578932 ] } },
{ "type": "Feature", "properties": { "score": 0.26720881 }, "geometry": { "type": "Point", "coordinates": [ -123.029787262977877, 41.448960909787161 ] } },
{ "type": "Feature", "properties": { "score": 0.26713657 }, "geometry": { "type": "Point", "coordinates": [ -123.027578443221358, 41.452624761429519 ] } },
{ "type": "Feature", "properties": { "score": 0.26713249 }, "geometry": { "type": "Point", "coordinates": [ -122.784509901244334, 41.22489985069668 ] } },
{ "type": "Feature", "properties": { "score": 0.26707867 }, "geometry": { "type": "Point", "coordinates": [ -122.838245748012341, 40.843406532549956 ] } },
{ "type": "Feature", "properties": { "score": 0.26702338 }, "geometry": { "type": "Point", "coordinates": [ -122.682671411350043, 40.921231649448153 ] } },
{ "type": "Feature", "properties": { "score": 0.26698795 }, "geometry": { "type": "Point", "coordinates": [ -122.847358609868763, 41.03772972417719 ] } }
]
}
