{
"type": "FeatureCollection",
"name": "Find_all_the_circular_farmlands_in_the_Shasta_Trin",
"crs": { "type": "name", "properties": { "name": "urn:ogc:def:crs:OGC:1.3:CRS84" } },
"features": [
{ "type": "Feature", "properties": { "score": 0.35768092 }, "geometry": { "type": "Point", "coordinates": [ -122.521443014496981, 41.550174791797239 ] } },
{ "type": "Feature", "properties": { "score": 0.35351929 }, "geometry": { "type": "Point", "coordinates": [ -122.867586945895368, 41.512771662817634 ] } },
{ "type": "Feature", "properties": { "score": 0.35286424 }, "geometry": { "type": "Point", "coordinates": [ -122.842371155220533, 41.486411470671214 ] } },
{ "type": "Feature", "properties": { "score": 0.35034174 }, "geometry": { "type": "Point", "coordinates": [ -122.832550865311404, 41.481263279560572 ] } },
{ "type": "Feature", "properties": { "score": 0.35017148 }, "geometry": { "type": "Point", "coordinates": [ -122.530785927415479, 41.544551778516251 ] } },
{ "type": "Feature", "properties": { "score": 0.3493652 }, "geometry": { "type": "Point", "coordinates": [ -122.933301029816491, 41.631716870142995 ] } },
{ "type": "Feature", "properties": { "score": 0.3487649 }, "geometry": { "type": "Point", "coordinates": [ -122.926288568730399, 41.635507295771127 ] } },
{ "type": "Feature", "properties": { "score": 0.34630257 }, "geometry": { "type": "Point", "coordinates": [ -122.551178948390046, 41.572889910702024 ] } },
{ "type": "Feature", "properties": { "score": 0.34629837 }, "geometry": { "type": "Point", "coordinates": [ -122.833403574654014, 41.499254414973706 ] } },
{ "type": "Feature", "properties": { "score": 0.34521857 }, "geometry": { "type": "Point", "coordinates": [ -122.841381900330916, 41.616133224555796 ] } },
{ "type": "Feature", "properties": { "score": 0.34518567 }, "geometry": { "type": "Point", "coordinates": [ -122.902149443059855, 41.632547943892142 ] } },
{ "type": "Feature", "properties": { "score": 0.34445277 }, "geometry": { "type": "Point", "coordinates": [ -122.850135957441481, 41.448380418427618 ] } },
{ "type": "Feature", "properties": { "score": 0.34437722 }, "geometry": { "type": "Point", "coordinates": [ -122.858552504863326, 41.574253923253124 ] } },
{ "type": "Feature", "properties": { "score": 0.34428209 }, "geometry": { "type": "Point", "coordinates": [ -122.891802391864047, 41.468899593621018 ] } },
{ "type": "Feature", "properties": { "score": 0.34415501 }, "geometry": { "type": "Point", "coordinates": [ -122.926200416394963, 41.633708329158765 ] } },
{ "type": "Feature", "properties": { "score": 0.34409282 }, "geometry": { "type": "Point", "coordinates": [ -122.851799694320519, 41.583437256355595 ] } },
{ "type": "Feature", "properties": { "score": 0.34336349 }, "geometry": { "type": "Point", "coordinates": [ -122.837276039778118, 41.630650498181744 ] } },
{ "type": "Feature", "properties": { "score": 0.34323758 }, "geometry": { "type": "Point", "coordinates": [ -122.986268792244445, 41.632095673060917 ] } },
{ "type": "Feature", "properties": { "score": 0.34310549 }, "geometry": { "type": "Point", "coordinates": [ -122.872699895281698, 41.618915822884183 ] } },
{ "type": "Feature", "properties": { "score": 0.34300318 }, "geometry": { "type": "Point", "coordinates": [ -122.914218736988133, 41.634028220876388 ] } },
{ "type": "Feature", "properties": { "score": 0.34296551 }, "geometry": { "type": "Point", "coordinates": [ -122.521365990847954, 41.548375387243794 ] } },
{ "type": "Feature", "properties": { "score": 0.34196952 }, "geometry": { "type": "Point", "coordinates": [ -122.863375738125754, 41.62456471510162 ] } },
{ "type": "Feature", "properties": { "score": 0.34182131 }, "geometry": { "type": "Point", "coordinates": [ -122.830159909509931, 41.481325444074557 ] } },
{ "type": "Feature", "properties": { "score": 0.34181327 }, "geometry": { "type": "Point", "coordinates": [ -122.518664584994795, 41.541233839939004 ] } },
{ "type": "Feature", "properties": { "score": 0.34169167 }, "geometry": { "type": "Point", "coordinates": [ -122.84469415000018, 41.534987300885348 ] } },
{ "type": "Feature", "properties": { "score": 0.34157985 }, "geometry": { "type": "Point", "coordinates": [ -122.511944984625401, 41.55219827779564 ] } },
{ "type": "Feature", "properties": { "score": 0.34151071 }, "geometry": { "type": "Point", "coordinates": [ -122.844762281204225, 41.486349064291119 ] } },
{ "type": "Feature", "properties": { "score": 0.34149963 }, "geometry": { "type": "Point", "coordinates": [ -122.850630593213822, 41.408737117366485 ] } },
{ "type": "Feature", "properties": { "score": 0.34114471 }, "geometry": { "type": "Point", "coordinates": [ -122.849405101393671, 41.583499844790495 ] } },
{ "type": "Feature", "properties": { "score": 0.34009191 }, "geometry": { "type": "Point", "coordinates": [ -122.509863926292468, 41.503613705252818 ] } },
{ "type": "Feature", "properties": { "score": 0.34002522 }, "geometry": { "type": "Point", "coordinates": [ -122.58271703271835, 39.806691820325128 ] } },
{ "type": "Feature", "properties": { "score": 0.34001124 }, "geometry": { "type": "Point", "coordinates": [ -122.522753357390542, 41.580764567979941 ] } },
{ "type": "Feature", "properties": { "score": 0.33982751 }, "geometry": { "type": "Point", "coordinates": [ -122.869806357610159, 41.509110614054549 ] } },
{ "type": "Feature", "properties": { "score": 0.33954611 }, "geometry": { "type": "Point", "coordinates": [ -122.879016139333814, 41.501662030928351 ] } },
{ "type": "Feature", "properties": { "score": 0.33898294 }, "geometry": { "type": "Point", "coordinates": [ -122.528392442097655, 41.544608048365404 ] } },
{ "type": "Feature", "properties": { "score": 0.33892691 }, "geometry": { "type": "Point", "coordinates": [ -122.905978589747136, 41.612631692733956 ] } },
{ "type": "Feature", "properties": { "score": 0.3386842 }, "geometry": { "type": "Point", "coordinates": [ -122.440516168932334, 40.170377528561929 ] } },
{ "type": "Feature", "properties": { "score": 0.33864456 }, "geometry": { "type": "Point", "coordinates": [ -122.830330268733761, 41.484923681587397 ] } },
{ "type": "Feature", "properties": { "score": 0.33843216 }, "geometry": { "type": "Point", "coordinates": [ -122.832209971806961, 41.474066806268688 ] } },
{ "type": "Feature", "properties": { "score": 0.33832613 }, "geometry": { "type": "Point", "coordinates": [ -122.834879738665506, 41.630712822771201 ] } },
{ "type": "Feature", "properties": { "score": 0.33813944 }, "geometry": { "type": "Point", "coordinates": [ -122.818374781806781, 41.485233825744544 ] } },
{ "type": "Feature", "properties": { "score": 0.33794105 }, "geometry": { "type": "Point", "coordinates": [ -122.871064371977269, 41.485659499872874 ] } },
{ "type": "Feature", "properties": { "score": 0.33765715 }, "geometry": { "type": "Point", "coordinates": [ -122.847859152261449, 41.551116555002622 ] } },
{ "type": "Feature", "properties": { "score": 0.33672822 }, "geometry": { "type": "Point", "coordinates": [ -122.940651457821218, 41.631528454800801 ] } },
{ "type": "Feature", "properties": { "score": 0.33639234 }, "geometry": { "type": "Point", "coordinates": [ -122.866713076793985, 41.494780688338906 ] } },
{ "type": "Feature", "properties": { "score": 0.33604348 }, "geometry": { "type": "Point", "coordinates": [ -122.502369860843245, 41.552421608403392 ] } },
{ "type": "Feature", "properties": { "score": 0.335769 }, "geometry": { "type": "Point", "coordinates": [ -122.914130914465431, 41.632229240765859 ] } },
{ "type": "Feature", "properties": { "score": 0.33570328 }, "geometry": { "type": "Point", "coordinates": [ -122.545588887714231, 41.499171641472806 ] } },
{ "type": "Feature", "properties": { "score": 0.33551762 }, "geometry": { "type": "Point", "coordinates": [ -122.840083785808687, 41.589146952072156 ] } },
{ "type": "Feature", "properties": { "score": 0.33535177 }, "geometry": { "type": "Point", "coordinates": [ -122.510828399493633, 39.934532327569194 ] } },
{ "type": "Feature", "properties": { "score": 0.33526567 }, "geometry": { "type": "Point", "coordinates": [ -122.831353587018086, 41.405637412797972 ] } },
{ "type": "Feature", "properties": { "score": 0.33522567 }, "geometry": { "type": "Point", "coordinates": [ -122.869892670287371, 41.510909682222021 ] } },
{ "type": "Feature", "properties": { "score": 0.3351441 }, "geometry": { "type": "Point", "coordinates": [ -122.868587079129355, 41.483923344173256 ] } },
{ "type": "Feature", "properties": { "score": 0.33489147 }, "geometry": { "type": "Point", "coordinates": [ -122.919011422548522, 41.633900405287676 ] } },
{ "type": "Feature", "properties": { "score": 0.3347626 }, "geometry": { "type": "Point", "coordinates": [ -122.497928218494877, 41.673204735921104 ] } },
{ "type": "Feature", "properties": { "score": 0.33457285 }, "geometry": { "type": "Point", "coordinates": [ -122.566609493540554, 41.541902732125017 ] } },
{ "type": "Feature", "properties": { "score": 0.33435667 }, "geometry": { "type": "Point", "coordinates": [ -122.84772949931164, 41.398004844972078 ] } },
{ "type": "Feature", "properties": { "score": 0.33405221 }, "geometry": { "type": "Point", "coordinates": [ -122.914043098957023, 41.630430259965188 ] } },
{ "type": "Feature", "properties": { "score": 0.33396044 }, "geometry": { "type": "Point", "coordinates": [ -122.85663194877209, 41.484237238831135 ] } },
{ "type": "Feature", "properties": { "score": 0.33388668 }, "geometry": { "type": "Point", "coordinates": [ -122.528624073910834, 41.550006243793021 ] } },
{ "type": "Feature", "properties": { "score": 0.3338325 }, "geometry": { "type": "Point", "coordinates": [ -122.494883226152822, 41.545390895378588 ] } },
{ "type": "Feature", "properties": { "score": 0.33362299 }, "geometry": { "type": "Point", "coordinates": [ -122.529585716847734, 41.739108973718295 ] } },
{ "type": "Feature", "properties": { "score": 0.33355409 }, "geometry": { "type": "Point", "coordinates": [ -122.831011977244486, 41.499316604320704 ] } },
{ "type": "Feature", "properties": { "score": 0.33330089 }, "geometry": { "type": "Point", "coordinates": [ -122.498946119706602, 41.640759995220883 ] } },
{ "type": "Feature", "properties": { "score": 0.33254856 }, "geometry": { "type": "Point", "coordinates": [ -122.504041401646262, 41.703682830890479 ] } },
{ "type": "Feature", "properties": { "score": 0.33248618 }, "geometry": { "type": "Point", "coordinates": [ -122.479709079300633, 41.752877561119263 ] } },
{ "type": "Feature", "properties": { "score": 0.33237299 }, "geometry": { "type": "Point", "coordinates": [ -122.858466337241651, 41.572454864017232 ] } },
{ "type": "Feature", "properties": { "score": 0.33227244 }, "geometry": { "type": "Point", "coordinates": [ -122.875095737057151, 41.618852760923993 ] } },
{ "type": "Feature", "properties": { "score": 0.33226097 }, "geometry": { "type": "Point", "coordinates": [ -122.783551821671438, 41.61401517724196 ] } },
{ "type": "Feature", "properties": { "score": 0.33226079 }, "geometry": { "type": "Point", "coordinates": [ -122.829819272506029, 41.474128960854422 ] } },
{ "type": "Feature", "properties": { "score": 0.33193979 }, "geometry": { "type": "Point", "coordinates": [ -122.453642545536255, 40.146653700678662 ] } },
{ "type": "Feature", "properties": { "score": 0.3318938 }, "geometry": { "type": "Point", "coordinates": [ -122.90951373347707, 41.635954832862602 ] } },
{ "type": "Feature", "properties": { "score": 0.3316521 }, "geometry": { "type": "Point", "coordinates": [ -122.795547884545769, 41.563271064514588 ] } },
{ "type": "Feature", "properties": { "score": 0.33163983 }, "geometry": { "type": "Point", "coordinates": [ -122.897182102152584, 41.629077097927556 ] } },
{ "type": "Feature", "properties": { "score": 0.33150244 }, "geometry": { "type": "Point", "coordinates": [ -122.528469646541879, 41.546407447503263 ] } },
{ "type": "Feature", "properties": { "score": 0.33132455 }, "geometry": { "type": "Point", "coordinates": [ -122.803565661940823, 41.631514398050626 ] } },
{ "type": "Feature", "properties": { "score": 0.33099025 }, "geometry": { "type": "Point", "coordinates": [ -122.844608454890604, 41.533188214067785 ] } },
{ "type": "Feature", "properties": { "score": 0.33084601 }, "geometry": { "type": "Point", "coordinates": [ -122.844847862699808, 41.488148166414021 ] } },
{ "type": "Feature", "properties": { "score": 0.33059645 }, "geometry": { "type": "Point", "coordinates": [ -122.845170792854148, 41.394469006225158 ] } },
{ "type": "Feature", "properties": { "score": 0.33057874 }, "geometry": { "type": "Point", "coordinates": [ -122.906766808657778, 41.628822626124027 ] } },
{ "type": "Feature", "properties": { "score": 0.33053908 }, "geometry": { "type": "Point", "coordinates": [ -122.882283235173986, 41.618663292926968 ] } },
{ "type": "Feature", "properties": { "score": 0.33037844 }, "geometry": { "type": "Point", "coordinates": [ -122.925150091227621, 41.56348383292962 ] } },
{ "type": "Feature", "properties": { "score": 0.33036697 }, "geometry": { "type": "Point", "coordinates": [ -122.858163765075389, 41.466183637838981 ] } },
{ "type": "Feature", "properties": { "score": 0.33031648 }, "geometry": { "type": "Point", "coordinates": [ -122.86731657327293, 41.507374207193941 ] } },
{ "type": "Feature", "properties": { "score": 0.33030695 }, "geometry": { "type": "Point", "coordinates": [ -122.918583044493445, 41.576268725999746 ] } },
{ "type": "Feature", "properties": { "score": 0.33027363 }, "geometry": { "type": "Point", "coordinates": [ -122.852525719628716, 41.448317876972034 ] } },
{ "type": "Feature", "properties": { "score": 0.33014688 }, "geometry": { "type": "Point", "coordinates": [ -122.851455700489254, 41.576240998924369 ] } },
{ "type": "Feature", "properties": { "score": 0.33010277 }, "geometry": { "type": "Point", "coordinates": [ -122.357012823929011, 39.83716263035857 ] } },
{ "type": "Feature", "properties": { "score": 0.33006755 }, "geometry": { "type": "Point", "coordinates": [ -122.857893440733278, 41.610297977406262 ] } },
{ "type": "Feature", "properties": { "score": 0.33002919 }, "geometry": { "type": "Point", "coordinates": [ -122.516117485940356, 41.537691045159036 ] } },
{ "type": "Feature", "properties": { "score": 0.32994309 }, "geometry": { "type": "Point", "coordinates": [ -122.843758055298466, 41.565634141548941 ] } },
{ "type": "Feature", "properties": { "score": 0.32986864 }, "geometry": { "type": "Point", "coordinates": [ -122.907029674220595, 41.634219591509613 ] } },
{ "type": "Feature", "properties": { "score": 0.3295491 }, "geometry": { "type": "Point", "coordinates": [ -122.561837136034072, 40.428762367040058 ] } },
{ "type": "Feature", "properties": { "score": 0.32912663 }, "geometry": { "type": "Point", "coordinates": [ -122.866196062028749, 41.483986216864039 ] } },
{ "type": "Feature", "properties": { "score": 0.32886642 }, "geometry": { "type": "Point", "coordinates": [ -123.469564250109187, 40.625277011466025 ] } },
{ "type": "Feature", "properties": { "score": 0.32884493 }, "geometry": { "type": "Point", "coordinates": [ -122.416319515725974, 40.034009826191216 ] } },
{ "type": "Feature", "properties": { "score": 0.32883778 }, "geometry": { "type": "Point", "coordinates": [ -122.527388416472277, 41.577053394931156 ] } },
{ "type": "Feature", "properties": { "score": 0.32877558 }, "geometry": { "type": "Point", "coordinates": [ -122.829989577435938, 41.477727203830177 ] } },
{ "type": "Feature", "properties": { "score": 0.32872468 }, "geometry": { "type": "Point", "coordinates": [ -122.513943216077934, 41.5989827799376 ] } },
{ "type": "Feature", "properties": { "score": 0.32861525 }, "geometry": { "type": "Point", "coordinates": [ -122.502042538157895, 41.60106152235587 ] } }
]
}
